SL-3 R/B                
1 19046U 88032B   22283.82870999  .00002889  00000+0  20998-3 0  9997
2 19046  97.3987 277.7483 0035391 202.7576 157.2084 15.04111291863956
SL-16 R/B               
1 19120U 88039B   22284.18185110  .00000242  00000+0  13795-3 0  9999
2 19120  71.0154 181.4001 0019659  90.2118 270.1259 14.19259999781919
COSMOS 1953             
1 19210U 88050A   22283.83236663  .00004104  00000+0  26575-3 0  9994
2 19210  82.5165 308.5180 0013094 114.6189 245.6405 15.07833398848940
SL-8 R/B                
1 19257U 88053B   22284.11960275  .00000370  00000+0  13150-3 0  9999
2 19257  74.0473 245.8478 0020090  11.6260  73.5769 14.37645625797807
COSMOS 1975             
1 19573U 88093A   22284.09219643  .00006272  00000+0  41938-3 0  9999
2 19573  82.5157 264.3450 0013714 151.0606 209.1385 15.06723631851875
SL-14 R/B               
1 19574U 88093B   22283.81908714  .00000568  00000+0  65886-4 0  9994
2 19574  82.5297 129.4688 0021146 190.3305 179.9539 14.83566448816191
SL-16 R/B               
1 19650U 88102B   22284.33049292 -.00000163  00000+0 -58607-4 0  9991
2 19650  70.9983 251.1506 0011997 109.8995 250.3422 14.15841073750887
INTERCOSMOS 24          
1 20261U 89080A   22283.74777155  .00001134  00000+0  34183-3 0  9996
2 20261  82.6081 193.0873 1200180 297.0251  51.3299 12.56542156510133
SL-14 R/B               
1 20262U 89080C   22284.16757311  .00000243  00000+0  65489-4 0  9990
2 20262  82.5903 252.1342 1236786 148.6328 219.4966 12.49104911504137
DELTA 2 R/B(1)          
1 20303U 89085B   22283.82406274  .00036547  00000+0  84207-3 0  9996
2 20303  35.6372  72.8896 0072405 172.2620 187.9243 15.38834909797674
DELTA 1 R/B             
1 20323U 89089B   22284.05945603  .00000505  00000+0  13865-3 0  9999
2 20323  97.0714 307.1307 0073053  90.4762 270.4806 14.48577288735801
ARIANE 40 R/B           
1 20443U 90005H   22284.18081501  .00000422  00000+0  15312-3 0  9991
2 20443  98.4724 350.4919 0009974 345.8755  14.2152 14.38283726713938
DELTA 2 R/B(1)          
1 20453U 90008B   22284.46510566  .00009436  00000+0  48321-3 0  9994
2 20453  35.6236 294.1454 0261938 186.5606 173.1645 14.90856173737223
COSMOS 2058             
1 20465U 90010A   22283.62409261  .00002779  00000+0  22580-3 0  9998
2 20465  82.4916 179.5968 0013796 226.0699 133.9387 14.99191020754886
SL-14 R/B               
1 20466U 90010B   22283.97785708  .00000585  00000+0  71207-4 0  9994
2 20466  82.5062 355.4082 0021935  80.3924 279.9767 14.81609897764979
SL-14 R/B               
1 20511U 90018B   22284.47090573  .00000499  00000+0  62490-4 0  9996
2 20511  82.5204 305.1109 0016374 219.0754 257.6567 14.80255487759351
HST                     
1 20580U 90037B   22283.91088552  .00004625  00000+0  25901-3 0  9995
2 20580  28.4690 123.5362 0002321 197.1166 296.2402 15.11025175583691
SL-16 R/B               
1 20625U 90046B   22283.61602554  .00000056  00000+0  53998-4 0  9998
2 20625  71.0022  34.1859 0013113  29.2190 330.9663 14.14709951672142
COSMOS 2084             
1 20663U 90055A   22284.37693884  .00005063  00000+0  42862-3 0  9990
2 20663  62.7934 221.9634 0126570  61.6766 299.7028 14.93254520749619
SL-6 R/B(2)             
1 20666U 90055D   22283.87480776  .00003597  00000+0  30263-3 0  9993
2 20666  62.7835 137.8298 0132422  83.7360 277.8799 14.93586128751494
SL-8 R/B                
1 20775U 90078B   22283.96933045  .00012213  00000+0  56025-3 0  9990
2 20775  82.9230 246.6870 0547490  85.6950 280.6575 14.41243689627147
SL-8 R/B                
1 21088U 91006B   22284.36309315  .00000111  00000+0  96920-4 0  9995
2 21088  82.9472  16.2690 0021244 283.3821 141.0868 13.77216775592917
OKEAN-3                 
1 21397U 91039A   22284.51340216  .00002982  00000+0  27689-3 0  9999
2 21397  82.5183  92.0744 0016628 212.7130 147.3062 14.93980614699581
COSMOS 2151             
1 21422U 91042A   22284.15566059  .00002306  00000+0  21987-3 0  9992
2 21422  82.5039 197.4905 0012376 289.6935  70.2949 14.92891619698099
SL-14 R/B               
1 21423U 91042B   22283.79377276  .00000527  00000+0  66449-4 0  9999
2 21423  82.4914 306.7521 0017858  14.6773 345.4955 14.79999769668682
ERS-1                   
1 21574U 91050A   22284.20742673  .00000339  00000+0  12665-3 0  9990
2 21574  98.7118 254.5236 0031937 295.9872  63.8025 14.37945720636637
ARIANE 40 R/B           
1 21610U 91050F   22284.14475342  .00000492  00000+0  16599-3 0  9990
2 21610  98.3705 351.3452 0002410 222.1661 137.9343 14.41121078639764
INTERCOSMOS 25          
1 21819U 91086A   22284.19124675  .00002191  00000+0  44674-3 0  9998
2 21819  82.6062 339.2801 1511756 268.9062  73.9099 12.06044257346193
SL-8 R/B                
1 21876U 92008B   22284.53437359  .00000015  00000+0 -19254-6 0  9993
2 21876  82.9229 113.5535 0035126  13.8829   3.9094 13.75715758538436
SL-8 R/B                
1 21938U 92020B   22283.47608066  .00000091  00000+0  78729-4 0  9996
2 21938  82.9347 359.1946 0029467 173.2977 198.5740 13.75315523529824
COSMOS 2219             
1 22219U 92076A   22284.49662845 -.00000216  00000+0 -89280-4 0  9993
2 22219  71.0591 100.2733 0020727 299.1928  60.7120 14.13710536542700
SL-16 R/B               
1 22220U 92076B   22284.16214431  .00000022  00000+0  34989-4 0  9992
2 22220  70.9986 291.2699 0013641 203.3761 223.8801 14.16508809545767
COSMOS 2221             
1 22236U 92080A   22283.74843749  .00002481  00000+0  26246-3 0  9994
2 22236  82.5117  24.6360 0017296  39.0920 321.1544 14.88706560594980
SL-16 R/B               
1 22285U 92093B   22283.95581209  .00000352  00000+0  20590-3 0  9996
2 22285  71.0198  98.6671 0003134  20.6580 339.4669 14.15102386537226
COSMOS 2228             
1 22286U 92094A   22284.17486002  .00002291  00000+0  24022-3 0  9996
2 22286  82.5218 341.4794 0021611 147.4344 212.8212 14.88971420611312
SL-16 R/B               
1 22566U 93016B   22283.82037013  .00000224  00000+0  14015-3 0  9992
2 22566  71.0078 311.2070 0008472  50.8949 309.2926 14.15016537525912
COSMOS 2242             
1 22626U 93024A   22283.83754065  .00002453  00000+0  25876-3 0  9995
2 22626  82.5259  10.2861 0019403 148.7643 211.4733 14.88795715594575
SL-16 R/B               
1 22803U 93059B   22283.84329348  .00000032  00000+0  39704-4 0  9990
2 22803  70.9888 117.6175 0019190 304.2482  55.6823 14.16880777503048
ARIANE 40 R/B           
1 22830U 93061H   22284.12276757  .00000314  00000+0  13451-3 0  9993
2 22830  98.6517 346.6114 0010850   5.2551 354.8744 14.31595354516063
COSMOS 2278             
1 23087U 94023A   22283.64849929 -.00000174  00000+0 -67110-4 0  9998
2 23087  71.0515 260.9618 0007124 145.4534 214.7052 14.13882542468651
SL-16 R/B               
1 23088U 94023B   22284.13607360  .00000343  00000+0  20288-3 0  9995
2 23088  71.0003 166.0436 0002940 350.4884   9.6182 14.14725477470185
SL-16 R/B               
1 23343U 94074B   22284.50932625  .00000639  00000+0  97572-4 0  9990
2 23343  97.8798 334.8633 0005718 309.0386 160.7489 14.77110472503507
SL-16 R/B               
1 23405U 94077B   22283.75182093 -.00000204  00000+0 -80094-4 0  9995
2 23405  70.9812  93.0502 0004944 263.6958  96.3602 14.15266978439935
ERS-2                   
1 23560U 95021A   22283.54515561  .00014730  00000+0  53919-3 0  9996
2 23560  98.4984 204.8967 0004010 138.1511 222.0032 15.28164989470916
ARIANE 40+ R/B          
1 23561U 95021B   22284.16895806  .00000428  00000+0  15562-3 0  9990
2 23561  98.6107 341.8661 0005923 260.2195 120.7473 14.38203726440348
SL-16 R/B               
1 23705U 95058B   22284.11860779 -.00000273  00000+0 -11574-3 0  9995
2 23705  71.0206 274.5881 0014190 226.0584 133.9369 14.15184095391917
SL-16 R/B               
1 24298U 96051B   22283.75195183  .00000095  00000+0  77681-4 0  9998
2 24298  70.8211 287.5093 0017470 188.9112 171.1700 14.12439616345713
ORBVIEW 2 (SEASTAR)     
1 24883U 97037A   22283.58427811  .00000494  00000+0  19382-3 0  9996
2 24883  98.6953  47.4104 0003188 121.2680 238.8817 14.33797173329801
SL-16 R/B               
1 25400U 98043G   22283.74790877  .00000120  00000+0  69196-4 0  9998
2 25400  98.6787 218.6357 0010633  38.5322 321.6615 14.25532663261444
SL-16 R/B               
1 25407U 98045B   22283.74288926  .00000278  00000+0  16568-3 0  9992
2 25407  71.0099 281.0417 0005753 138.0333 222.1231 14.15873388250727
ISS (ZARYA)             
1 25544U 98067A   22284.56067839  .00016241  00000+0  29255-3 0  9991
2 25544  51.6418 120.0355 0003212 288.5573 103.7200 15.49940618363236
CZ-4B R/B               
1 25732U 99025C   22283.77553215  .00000101  00000+0  70876-4 0  9999
2 25732  98.8426 324.7053 0036625 319.1029 166.8309 14.17747741211593
OKEAN-O                 
1 25860U 99039A   22283.82677679  .00000797  00000+0  12052-3 0  9995
2 25860  98.1273 324.6204 0001708  77.2284 282.9117 14.77043275250287
SL-16 R/B               
1 25861U 99039B   22283.83704187  .00000776  00000+0  11259-3 0  9997
2 25861  98.1711 312.7065 0014767 325.9917  34.0346 14.78917582252557
DELTA 2 R/B             
1 25876U 99041E   22283.54129524  .00002005  00000+0  37699-3 0  9993
2 25876  51.7668 212.7809 0528346 289.8755  64.5990 14.05310630187422
HELIOS 1B               
1 25977U 99064A   22283.79326846  .00001012  00000+0  13197-3 0  9997
2 25977  98.3152 122.6461 0002179 112.3592 247.7852 14.82892300500371
TERRA                   
1 25994U 99068A   22284.46521156  .00000680  00000+0  16049-3 0  9995
2 25994  98.1267 353.6643 0001019 100.2930  16.4741 14.57177110213519
SL-16 R/B               
1 26070U 00006B   22283.50624687  .00000249  00000+0  15142-3 0  9996
2 26070  71.0035 197.4293 0018912 277.7148  82.1827 14.15504420172199
TITAN 4B R/B            
1 26474U 00047B   22284.49755071  .00004251  00000+0  36552-3 0  9995
2 26474  67.9934 265.5447 0056305 342.1200  17.7960 14.97181668205892
ENVISAT                 
1 27386U 02009A   22284.45352654  .00000304  00000+0  11365-3 0  9994
2 27386  98.1973 260.1945 0001225  88.6912  66.9888 14.38165993 80200
